*******************************************************************************
 Revised: September 28, 2017           Jupiter                              599
 
 PHYSICAL DATA (updated 2018-Aug-15):
  Mass x10^24 (kg)      = 1898.13+-.19    Density (g/cm^3)       =   1.326
  Equat. radius (1 bar) = 71492+-4 km     Polar radius (km)      =  66854+-10
  Vol. Mean Radius (km) = 69911+-6        Flattening             =   0.06487
  Geometric Albedo      = 0.52            Rocky core mass (Mc/M) =  0.0261
  Sid. rot. period (III)= 9h 55m 29.71 s  Sid. rot. rate (rad/s) =  0.00017585 
  Mean solar day, hrs   = ~9.9259         
  GM (km^3/s^2)         = 126686534.911   GM 1-sigma (km^3/s^2)  =  +-1.5
  Equ. grav, ge (m/s^2) = 24.79           Pol. grav, gp (m/s^2)  =  28.34
  Vis. magnitude V(1,0) = -9.40
  Vis. mag. (opposition)= -2.70           Obliquity to orbit     =  3.13 deg
  Sidereal orbit period = 11.861982204 y  Sidereal orbit period  = 4332.589 d
  Mean daily motion     = 0.0831294 deg/d Mean orbit speed, km/s = 13.0697
  Atmos. temp. (1 bar)  = 165+-5 K        Escape speed, km/s    =  59.5           
  A_roche(ice)/Rp       =  2.76           Hill's sphere rad. Rp  = 740
                                 Perihelion   Aphelion     Mean
  Solar Constant (W/m^2)         56           46           51
  Maximum Planetary IR (W/m^2)   13.7         13.4         13.6
  Minimum Planetary IR (W/m^2)   13.7         13.4         13.6
*******************************************************************************
 
 
*******************************************************************************
Ephemeris / WWW_USER Fri Nov  9 15:47:09 2018 Pasadena, USA      / Horizons    
*******************************************************************************
Target body name: Jupiter (599)                   {source: jup341}
Center body name: Earth (399)                     {source: DE431mx}
Center-site name: GEOCENTRIC
*******************************************************************************
Start time      : A.D. 2017-Feb-28 00:00:00.0000 UT      
Stop  time      : A.D. 2017-Mar-02 00:00:00.0000 UT      
Step-size       : 5 minutes
*******************************************************************************
Target pole/equ : IAU_JUPITER                     {West-longitude positive}
Target radii    : 71492.0 x 71492.0 x 66854.0 km  {Equator, meridian, pole}    
Center geodetic : 0.00000000,0.00000000,0.0000000 {E-lon(deg),Lat(deg),Alt(km)}
Center cylindric: 0.00000000,0.00000000,0.0000000 {E-lon(deg),Dxy(km),Dz(km)}
Center pole/equ : High-precision EOP model        {East-longitude positive}
Center radii    : 6378.1 x 6378.1 x 6356.8 km     {Equator, meridian, pole}    
Target primary  : Sun
Vis. interferer : MOON (R_eq= 1737.400) km        {source: DE431mx}
Rel. light bend : Sun, EARTH                      {source: DE431mx}
Rel. lght bnd GM: 1.3271E+11, 3.9860E+05 km^3/s^2                              
Atmos refraction: NO (AIRLESS)
RA format       : DEG
Time format     : CAL 
EOP file        : eop.181108.p190130                                           
EOP coverage    : DATA-BASED 1962-JAN-20 TO 2018-NOV-08. PREDICTS-> 2019-JAN-29
Units conversion: 1 au= 149597870.700 km, c= 299792.458 km/s, 1 day= 86400.0 s 
Table cut-offs 1: Elevation (-90.0deg=NO ),Airmass (>38.000=NO), Daylight (NO )
Table cut-offs 2: Solar elongation (  0.0,180.0=NO ),Local Hour Angle( 0.0=NO )
Table cut-offs 3: RA/DEC angular rate (     0.0=NO )                           
**************************************************************************************************************************************
 Date__(UT)__HR:MN:SC.fff     R.A._(ICRF/J2K)_DEC Ang-diam Ob-lon Ob-lat Sl-lon Sl-lat   NP.ang   NP.dist            delta      deldot
**************************************************************************************************************************************
$$SOE
 2017-Feb-28 18:20:00.000     201.01318  -7.20475 42.12600 107.67  -3.50 114.65  -3.02  23.3552    -19.66 4.67990377737042 -18.9140260
 2017-Feb-28 18:25:00.000     201.01296  -7.20465 42.12634 110.69  -3.50 117.67  -3.02  23.3552    -19.66 4.67986584916012 -18.9126937
 2017-Feb-28 18:30:00.000     201.01274  -7.20456 42.12668 113.72  -3.50 120.70  -3.02  23.3553    -19.66 4.67982792362165 -18.9113613
 2017-Feb-28 18:35:00.000     201.01252  -7.20446 42.12703 116.74  -3.50 123.72  -3.02  23.3553    -19.66 4.67979000075527 -18.9100287
 2017-Feb-28 18:40:00.000     201.01230  -7.20436 42.12737 119.76  -3.50 126.74  -3.02  23.3554    -19.66 4.67975208056130 -18.9086960
 2017-Feb-28 18:45:00.000     201.01208  -7.20426 42.12771 122.79  -3.50 129.76  -3.02  23.3554    -19.66 4.67971416303998 -18.9073632
 2017-Feb-28 18:50:00.000     201.01186  -7.20416 42.12805 125.81  -3.50 132.79  -3.02  23.3554    -19.66 4.67967624819165 -18.9060302
 2017-Feb-28 18:55:00.000     201.01164  -7.20406 42.12839 128.83  -3.50 135.81  -3.02  23.3555    -19.66 4.67963833601657 -18.9046971
 2017-Feb-28 19:00:00.000     201.01142  -7.20396 42.12873 131.86  -3.50 138.83  -3.02  23.3555    -19.66 4.67960042651506 -18.9033638
 2017-Feb-28 19:05:00.000     201.01121  -7.20386 42.12907 134.88  -3.50 141.85  -3.02  23.3556    -19.66 4.67956251968739 -18.9020303
 2017-Feb-28 19:10:00.000     201.01099  -7.20376 42.12941 137.90  -3.50 144.88  -3.02  23.3556    -19.66 4.67952461553390 -18.9006968
 2017-Feb-28 19:15:00.000     201.01077  -7.20366 42.12976 140.93  -3.50 147.90  -3.02  23.3556    -19.66 4.67948671405487 -18.8993630
 2017-Feb-28 19:20:00.000     201.01055  -7.20356 42.13010 143.95  -3.50 150.92  -3.02  23.3557    -19.66 4.67944881525060 -18.8980291
 2017-Feb-28 19:25:00.000     201.01033  -7.20346 42.13044 146.97  -3.50 153.94  -3.02  23.3557    -19.66 4.67941091912142 -18.8966951
 2017-Feb-28 19:30:00.000     201.01011  -7.20336 42.13078 149.99  -3.50 156.97  -3.02  23.3558    -19.66 4.67937302566761 -18.8953609
 2017-Feb-28 19:35:00.000     201.00989  -7.20326 42.13112 153.02  -3.50 159.99  -3.02  23.3558    -19.66 4.67933513488951 -18.8940265
 2017-Feb-28 19:40:00.000     201.00967  -7.20316 42.13146 156.04  -3.50 163.01  -3.02  23.3558    -19.66 4.67929724678741 -18.8926920
 2017-Feb-28 19:45:00.000     201.00945  -7.20306 42.13180 159.06  -3.50 166.03  -3.02  23.3559    -19.66 4.67925936136166 -18.8913573
 2017-Feb-28 19:50:00.000     201.00923  -7.20296 42.13214 162.09  -3.50 169.06  -3.02  23.3559    -19.66 4.67922147861255 -18.8900225
 2017-Feb-28 19:55:00.000     201.00901  -7.20286 42.13249 165.11  -3.50 172.08  -3.02  23.3560    -19.66 4.67918359854042 -18.8886875
 2017-Feb-28 20:00:00.000     201.00879  -7.20276 42.13283 168.13  -3.50 175.10  -3.02  23.3560    -19.66 4.67914572114556 -18.8873524
 2017-Feb-28 20:05:00.000     201.00857  -7.20266 42.13317 171.16  -3.50 178.13  -3.02  23.3561    -19.66 4.67910784642835 -18.8860171
 2017-Feb-28 20:10:00.000     201.00835  -7.20256 42.13351 174.18  -3.50 181.15  -3.02  23.3561    -19.66 4.67906997438906 -18.8846816
 2017-Feb-28 20:15:00.000     201.00813  -7.20246 42.13385 177.20  -3.50 184.17  -3.02  23.3561    -19.66 4.67903210502807 -18.8833459
 2017-Feb-28 20:20:00.000     201.00791  -7.20236 42.13419 180.23  -3.50 187.19  -3.02  23.3562    -19.66 4.67899423834568 -18.8820101
 2017-Feb-28 20:25:00.000     201.00769  -7.20226 42.13453 183.25  -3.50 190.22  -3.02  23.3562    -19.66 4.67895637434222 -18.8806741
 2017-Feb-28 20:30:00.000     201.00747  -7.20216 42.13487 186.27  -3.50 193.24  -3.02  23.3563    -19.66 4.67891851301805 -18.8793380
 2017-Feb-28 20:35:00.000     201.00725  -7.20206 42.13521 189.30  -3.50 196.26  -3.02  23.3563    -19.66 4.67888065437348 -18.8780017
 2017-Feb-28 20:40:00.000     201.00703  -7.20196 42.13555 192.32  -3.50 199.28  -3.02  23.3563    -19.66 4.67884279840887 -18.8766652
 2017-Feb-28 20:45:00.000     201.00681  -7.20186 42.13590 195.34  -3.50 202.31  -3.02  23.3564    -19.66 4.67880494512454 -18.8753286
 2017-Feb-28 20:50:00.000     201.00659  -7.20176 42.13624 198.36  -3.50 205.33  -3.02  23.3564    -19.66 4.67876709452085 -18.8739917
 2017-Feb-28 20:55:00.000     201.00637  -7.20166 42.13658 201.39  -3.50 208.35  -3.02  23.3565    -19.66 4.67872924659814 -18.8726547
 2017-Feb-28 21:00:00.000     201.00615  -7.20156 42.13692 204.41  -3.50 211.37  -3.02  23.3565    -19.66 4.67869140135676 -18.8713176
 2017-Feb-28 21:05:00.000     201.00593  -7.20146 42.13726 207.43  -3.50 214.40  -3.02  23.3565    -19.67 4.67865355879703 -18.8699802
 2017-Feb-28 21:10:00.000     201.00571  -7.20136 42.13760 210.46  -3.50 217.42  -3.02  23.3566    -19.67 4.67861571891935 -18.8686427
 2017-Feb-28 21:15:00.000     201.00549  -7.20126 42.13794 213.48  -3.50 220.44  -3.02  23.3566    -19.67 4.67857788172402 -18.8673050
 2017-Feb-28 21:20:00.000     201.00527  -7.20116 42.13828 216.50  -3.50 223.46  -3.02  23.3567    -19.67 4.67854004721143 -18.8659671
 2017-Feb-28 21:25:00.000     201.00505  -7.20106 42.13862 219.53  -3.50 226.49  -3.02  23.3567    -19.67 4.67850221538190 -18.8646291
 2017-Feb-28 21:30:00.000     201.00483  -7.20096 42.13896 222.55  -3.50 229.51  -3.02  23.3567    -19.67 4.67846438623583 -18.8632909
 2017-Feb-28 21:35:00.000     201.00461  -7.20086 42.13930 225.57  -3.50 232.53  -3.02  23.3568    -19.67 4.67842655977354 -18.8619525
 2017-Feb-28 21:40:00.000     201.00439  -7.20076 42.13964 228.60  -3.50 235.55  -3.02  23.3568    -19.67 4.67838873599539 -18.8606139
 2017-Feb-28 21:45:00.000     201.00417  -7.20066 42.13998 231.62  -3.50 238.58  -3.02  23.3569    -19.67 4.67835091490177 -18.8592751
 2017-Feb-28 21:50:00.000     201.00395  -7.20056 42.14032 234.64  -3.50 241.60  -3.02  23.3569    -19.67 4.67831309649300 -18.8579362
 2017-Feb-28 21:55:00.000     201.00373  -7.20046 42.14067 237.67  -3.50 244.62  -3.02  23.3569    -19.67 4.67827528076948 -18.8565971
